O3B FM20                
1 44112U 19020A   26115.64077483 -.00000027  00000+0  00000+0 0  9996
2 44112   0.0532   1.2981 0002590  23.0291 335.6833  5.00115501128941
O3B FM19                
1 44113U 19020B   26111.67003593 -.00000022  00000+0  00000+0 0  9992
2 44113   0.0716 348.2754 0003491  26.5306 345.2041  5.00115966128611
O3B FM17                
1 44114U 19020C   26115.34817455 -.00000027  00000+0  00000+0 0  9996
2 44114   0.0342 354.8678 0002609  36.6567 328.4893  5.00115482128886
O3B FM18                
1 44115U 19020D   26115.69426773 -.00000027  00000+0  00000+0 0  9994
2 44115   0.0537   1.5150 0002734  34.2778 324.2238  5.00115236129022
SALSAT                  
1 46495U 20068K   26115.73859803  .00008478  00000+0  30336-3 0  9996
2 46495  97.8866 115.6436 0011520 121.8273 238.4089 15.29000493307347
O3B MPOWER F1           
1 54755U 22174A   26115.65297668 -.00000027  00000+0  00000+0 0  9994
2 54755   0.0598 347.3990 0005969  66.0147  92.0009  5.00114823 62730
O3B MPOWER F2           
1 54756U 22174B   26115.53887779 -.00000027  00000+0  00000+0 0  9990
2 54756   0.0564 345.0501 0005938  47.5246 327.4601  5.00115368 62803
O3B MPOWER F4           
1 56367U 23059A   26115.80308457 -.00000027  00000+0  00000+0 0  9994
2 56367   0.0649   2.6449 0007251  44.1224 313.2915  5.00115881 55974
O3B MPOWER F3           
1 56368U 23059B   26115.63646530 -.00000027  00000+0  00000+0 0  9993
2 56368   0.0660   2.4125 0006648  34.4896 323.1418  5.00116604 52107
O3B MPOWER F9           
1 64866U 25153A   26115.60468566 -.00000027  00000+0  00000+0 0  9990
2 64866   0.0539  15.2808 0005549  44.4071 300.3651  5.00116067 16939
O3B MPOWER F10          
1 64867U 25153B   26115.37069255 -.00000027  00000+0  00000+0 0  9997
2 64867   0.0538  10.3189 0002819 261.8403  87.8067  5.00114865 19393
